ONEWEB-0165             
1 48233U 21031Z   24011.82005242 -.00000171  00000+0 -49669-3 0  9995
2 48233  87.8972 106.3574 0001747  97.8580 262.2748 13.14502515131783
ONEWEB-0199             
1 48234U 21031AA  24011.80419289  .00000009  00000+0 -11136-4 0  9992
2 48234  87.8973 106.3312 0001725 101.7410 258.3913 13.14503741131689
ONEWEB-0203             
1 48235U 21031AB  24011.79467976  .00000250  00000+0  63898-3 0  9995
2 48235  87.8978 106.3339 0001971 114.1014 246.0322 13.14503202131696
ONEWEB-0197             
1 48236U 21031AC  24011.77010528  .00000096  00000+0  22315-3 0  9998
2 48236  87.8981 106.3461 0001317 110.2725 249.8546 13.14503367131609
ONEWEB-0194             
1 48237U 21031AD  24011.74868413 -.00000376  00000+0 -10480-2 0  9992
2 48237  87.8984 106.3417 0001923 112.0378 248.0956 13.14501604131777
ONEWEB-0193             
1 48238U 21031AE  24011.76455248 -.00000014  00000+0 -71531-4 0  9998
2 48238  87.8983 106.3474 0001895 102.7929 257.3412 13.14501727131727
ONEWEB-0191             
1 48239U 21031AF  24011.77564138 -.00000244  00000+0 -69342-3 0  9990
2 48239  87.8979 106.3334 0001805 106.1401 253.9927 13.14503348131580
